{
"type": "FeatureCollection",
"name": "peaks",
"crs": { "type": "name", "properties": { "name": "urn:ogc:def:crs:OGC:1.3:CRS84" } },
"features": [
{ "type": "Feature", "properties": { "name": "Engineer Mountain", "county": "San Juan", "elevation_m": 3955.0, "distance_km": 0.0, "bearing_deg": 0.0, "predicted": "observer", "lon": -107.80652, "lat": 37.6993 }, "geometry": { "type": "Point", "coordinates": [ -107.80652, 37.6993 ] } },
{ "type": "Feature", "properties": { "name": "Gilpin Peak", "county": "Ouray", "elevation_m": 4164.0, "distance_km": 31.9, "bearing_deg": 2.0, "predicted": "visible", "lon": -107.79326, "lat": 37.98633 }, "geometry": { "type": "Point", "coordinates": [ -107.79326, 37.98633 ] } },
{ "type": "Feature", "properties": { "name": "Mount Sneffels", "county": "Ouray", "elevation_m": 4293.0, "distance_km": 33.8, "bearing_deg": 2.0, "predicted": "visible", "lon": -107.79227, "lat": 38.00384 }, "geometry": { "type": "Point", "coordinates": [ -107.79227, 38.00384 ] } },
{ "type": "Feature", "properties": { "name": "Teakettle Mountain", "county": "Ouray", "elevation_m": 4178.0, "distance_km": 33.7, "bearing_deg": 7.0, "predicted": "hidden", "lon": -107.76152, "lat": 38.00048 }, "geometry": { "type": "Point", "coordinates": [ -107.76152, 38.00048 ] } },
{ "type": "Feature", "properties": { "name": "Potosi Peak", "county": "Ouray", "elevation_m": 4197.0, "distance_km": 32.6, "bearing_deg": 9.0, "predicted": "hidden", "lon": -107.74928, "lat": 37.98979 }, "geometry": { "type": "Point", "coordinates": [ -107.74928, 37.98979 ] } },
{ "type": "Feature", "properties": { "name": "Wetterhorn Peak", "county": "Hinsdale", "elevation_m": 4264.0, "distance_km": 47.8, "bearing_deg": 33.0, "predicted": "visible", "lon": -107.51088, "lat": 38.06061 }, "geometry": { "type": "Point", "coordinates": [ -107.51088, 38.06061 ] } },
{ "type": "Feature", "properties": { "name": "Uncompahgre Peak", "county": "Hinsdale", "elevation_m": 4353.0, "distance_km": 51.2, "bearing_deg": 36.0, "predicted": "visible", "lon": -107.46253, "lat": 38.07145 }, "geometry": { "type": "Point", "coordinates": [ -107.46253, 38.07145 ] } },
{ "type": "Feature", "properties": { "name": "Handies Peak", "county": "Hinsdale", "elevation_m": 4274.0, "distance_km": 35.6, "bearing_deg": 48.0, "predicted": "visible", "lon": -107.50445, "lat": 37.91296 }, "geometry": { "type": "Point", "coordinates": [ -107.50445, 37.91296 ] } },
{ "type": "Feature", "properties": { "name": "Jones Mountain", "county": "San Juan", "elevation_m": 4205.0, "distance_km": 33.0, "bearing_deg": 48.0, "predicted": "visible", "lon": -107.5265, "lat": 37.8965 }, "geometry": { "type": "Point", "coordinates": [ -107.5265, 37.8965 ] } },
{ "type": "Feature", "properties": { "name": "Niagara Peak", "county": "San Juan", "elevation_m": 4199.0, "distance_km": 32.0, "bearing_deg": 49.0, "predicted": "visible", "lon": -107.53351, "lat": 37.88925 }, "geometry": { "type": "Point", "coordinates": [ -107.53351, 37.88925 ] } },
{ "type": "Feature", "properties": { "name": "American Peak", "county": "Hinsdale", "elevation_m": 4190.0, "distance_km": 34.1, "bearing_deg": 49.0, "predicted": "visible", "lon": -107.51248, "lat": 37.89942 }, "geometry": { "type": "Point", "coordinates": [ -107.51248, 37.89942 ] } },
{ "type": "Feature", "properties": { "name": "Redcloud Peak", "county": "Hinsdale", "elevation_m": 4263.0, "distance_km": 43.2, "bearing_deg": 52.0, "predicted": "visible", "lon": -107.42173, "lat": 37.94099 }, "geometry": { "type": "Point", "coordinates": [ -107.42173, 37.94099 ] } },
{ "type": "Feature", "properties": { "name": "Sunshine Peak", "county": "Hinsdale", "elevation_m": 4254.0, "distance_km": 41.7, "bearing_deg": 53.0, "predicted": "visible", "lon": -107.42556, "lat": 37.92272 }, "geometry": { "type": "Point", "coordinates": [ -107.42556, 37.92272 ] } },
{ "type": "Feature", "properties": { "name": "Half Peak", "county": "Hinsdale", "elevation_m": 4216.0, "distance_km": 35.1, "bearing_deg": 58.0, "predicted": "visible", "lon": -107.46657, "lat": 37.86414 }, "geometry": { "type": "Point", "coordinates": [ -107.46657, 37.86414 ] } },
{ "type": "Feature", "properties": { "name": "Pole Creek Mountain", "county": "Hinsdale", "elevation_m": 4178.0, "distance_km": 34.8, "bearing_deg": 72.0, "predicted": "visible", "lon": -107.43112, "lat": 37.79598 }, "geometry": { "type": "Point", "coordinates": [ -107.43112, 37.79598 ] } },
{ "type": "Feature", "properties": { "name": "Arrow Peak", "county": "San Juan", "elevation_m": 4189.0, "distance_km": 17.3, "bearing_deg": 92.0, "predicted": "visible", "lon": -107.61014, "lat": 37.6928 }, "geometry": { "type": "Point", "coordinates": [ -107.61014, 37.6928 ] } },
{ "type": "Feature", "properties": { "name": "Rio Grande Pyramid", "county": "Hinsdale", "elevation_m": 4202.0, "distance_km": 36.6, "bearing_deg": 93.0, "predicted": "hidden", "lon": -107.39235, "lat": 37.67953 }, "geometry": { "type": "Point", "coordinates": [ -107.39235, 37.67953 ] } },
{ "type": "Feature", "properties": { "name": "Vestal Peak", "county": "San Juan", "elevation_m": 4201.0, "distance_km": 18.0, "bearing_deg": 93.0, "predicted": "visible", "lon": -107.60268, "lat": 37.68937 }, "geometry": { "type": "Point", "coordinates": [ -107.60268, 37.68937 ] } },
{ "type": "Feature", "properties": { "name": "Trinity Peaks", "county": "San Juan", "elevation_m": 4177.0, "distance_km": 19.9, "bearing_deg": 95.0, "predicted": "visible", "lon": -107.58122, "lat": 37.68494 }, "geometry": { "type": "Point", "coordinates": [ -107.58122, 37.68494 ] } },
{ "type": "Feature", "properties": { "name": "Storm King Peak", "county": "San Juan", "elevation_m": 4166.0, "distance_km": 21.9, "bearing_deg": 97.0, "predicted": "visible", "lon": -107.55951, "lat": 37.67644 }, "geometry": { "type": "Point", "coordinates": [ -107.55951, 37.67644 ] } },
{ "type": "Feature", "properties": { "name": "Jagged Mountain", "county": "San Juan", "elevation_m": 4175.0, "distance_km": 20.5, "bearing_deg": 107.0, "predicted": "visible", "lon": -107.58394, "lat": 37.64557 }, "geometry": { "type": "Point", "coordinates": [ -107.58394, 37.64557 ] } },
{ "type": "Feature", "properties": { "name": "Animas Mountain", "county": "San Juan", "elevation_m": 4182.0, "distance_km": 16.8, "bearing_deg": 112.0, "predicted": "visible", "lon": -107.6292, "lat": 37.64314 }, "geometry": { "type": "Point", "coordinates": [ -107.6292, 37.64314 ] } },
{ "type": "Feature", "properties": { "name": "Sunlight Peak", "county": "La Plata", "elevation_m": 4261.0, "distance_km": 20.2, "bearing_deg": 113.0, "predicted": "visible", "lon": -107.5958, "lat": 37.62728 }, "geometry": { "type": "Point", "coordinates": [ -107.5958, 37.62728 ] } },
{ "type": "Feature", "properties": { "name": "Windom Peak", "county": "La Plata", "elevation_m": 4261.0, "distance_km": 20.8, "bearing_deg": 114.0, "predicted": "hidden", "lon": -107.59176, "lat": 37.62131 }, "geometry": { "type": "Point", "coordinates": [ -107.59176, 37.62131 ] } },
{ "type": "Feature", "properties": { "name": "Glacier Point", "county": "La Plata", "elevation_m": 4165.0, "distance_km": 18.8, "bearing_deg": 116.0, "predicted": "hidden", "lon": -107.61437, "lat": 37.62602 }, "geometry": { "type": "Point", "coordinates": [ -107.61437, 37.62602 ] } },
{ "type": "Feature", "properties": { "name": "North Eolus", "county": "La Plata", "elevation_m": 4256.0, "distance_km": 18.3, "bearing_deg": 117.0, "predicted": "visible", "lon": -107.62103, "lat": 37.62544 }, "geometry": { "type": "Point", "coordinates": [ -107.62103, 37.62544 ] } },
{ "type": "Feature", "properties": { "name": "Jupiter Mountain", "county": "La Plata", "elevation_m": 4197.0, "distance_km": 21.2, "bearing_deg": 117.0, "predicted": "hidden", "lon": -107.59199, "lat": 37.61243 }, "geometry": { "type": "Point", "coordinates": [ -107.59199, 37.61243 ] } },
{ "type": "Feature", "properties": { "name": "Pigeon Peak", "county": "La Plata", "elevation_m": 4225.0, "distance_km": 16.0, "bearing_deg": 118.0, "predicted": "hidden", "lon": -107.64642, "lat": 37.63237 }, "geometry": { "type": "Point", "coordinates": [ -107.64642, 37.63237 ] } },
{ "type": "Feature", "properties": { "name": "Mount Eolus", "county": "La Plata", "elevation_m": 4264.0, "distance_km": 18.4, "bearing_deg": 118.0, "predicted": "hidden", "lon": -107.6226, "lat": 37.62169 }, "geometry": { "type": "Point", "coordinates": [ -107.6226, 37.62169 ] } },
{ "type": "Feature", "properties": { "name": "Turret Peak", "county": "La Plata", "elevation_m": 4181.0, "distance_km": 16.7, "bearing_deg": 118.0, "predicted": "hidden", "lon": -107.63984, "lat": 37.62766 }, "geometry": { "type": "Point", "coordinates": [ -107.63984, 37.62766 ] } },
{ "type": "Feature", "properties": { "name": "El Diente Peak", "county": "Dolores", "elevation_m": 4287.0, "distance_km": 23.4, "bearing_deg": 312.0, "predicted": "hidden", "lon": -108.00534, "lat": 37.83943 }, "geometry": { "type": "Point", "coordinates": [ -108.00534, 37.83943 ] } },
{ "type": "Feature", "properties": { "name": "Mount Wilson", "county": "Dolores", "elevation_m": 4323.0, "distance_km": 22.5, "bearing_deg": 314.0, "predicted": "visible", "lon": -107.99158, "lat": 37.83921 }, "geometry": { "type": "Point", "coordinates": [ -107.99158, 37.83921 ] } },
{ "type": "Feature", "properties": { "name": "Gladstone Peak", "county": "San Miguel", "elevation_m": 4212.0, "distance_km": 22.5, "bearing_deg": 316.0, "predicted": "visible", "lon": -107.98388, "lat": 37.84523 }, "geometry": { "type": "Point", "coordinates": [ -107.98388, 37.84523 ] } },
{ "type": "Feature", "properties": { "name": "Wilson Peak", "county": "San Miguel", "elevation_m": 4261.0, "distance_km": 23.8, "bearing_deg": 319.0, "predicted": "visible", "lon": -107.98465, "lat": 37.8603 }, "geometry": { "type": "Point", "coordinates": [ -107.98465, 37.8603 ] } },
{ "type": "Feature", "properties": { "name": "Grizzly Peak", "county": "San Juan", "elevation_m": 4176.0, "distance_km": 8.0, "bearing_deg": 322.0, "predicted": "visible", "lon": -107.86181, "lat": 37.7559 }, "geometry": { "type": "Point", "coordinates": [ -107.86181, 37.7559 ] } },
{ "type": "Feature", "properties": { "name": "San Miguel Peak", "county": "Dolores", "elevation_m": 4173.0, "distance_km": 10.2, "bearing_deg": 330.0, "predicted": "visible", "lon": -107.86452, "lat": 37.77914 }, "geometry": { "type": "Point", "coordinates": [ -107.86452, 37.77914 ] } },
{ "type": "Feature", "properties": { "name": "Vermilion Peak", "county": "San Miguel", "elevation_m": 4221.0, "distance_km": 11.3, "bearing_deg": 350.0, "predicted": "visible", "lon": -107.82847, "lat": 37.79934 }, "geometry": { "type": "Point", "coordinates": [ -107.82847, 37.79934 ] } },
{ "type": "Feature", "properties": { "name": "Golden Horn", "county": "San Juan", "elevation_m": 4168.0, "distance_km": 11.8, "bearing_deg": 352.0, "predicted": "hidden", "lon": -107.82465, "lat": 37.80473 }, "geometry": { "type": "Point", "coordinates": [ -107.82465, 37.80473 ] } },
{ "type": "Feature", "properties": { "name": "Fuller Peak", "county": "San Juan", "elevation_m": 4183.0, "distance_km": 10.8, "bearing_deg": 353.0, "predicted": "visible", "lon": -107.82129, "lat": 37.79599 }, "geometry": { "type": "Point", "coordinates": [ -107.82129, 37.79599 ] } },
{ "type": "Feature", "properties": { "name": "Dallas Peak", "county": "San Miguel", "elevation_m": 4176.0, "distance_km": 32.1, "bearing_deg": 357.0, "predicted": "hidden", "lon": -107.82368, "lat": 37.98811 }, "geometry": { "type": "Point", "coordinates": [ -107.82368, 37.98811 ] } },
{ "type": "Feature", "properties": { "name": "Ulysses S Grant Peak", "county": "San Juan", "elevation_m": 4172.0, "distance_km": 13.9, "bearing_deg": 360.0, "predicted": "hidden", "lon": -107.80723, "lat": 37.82443 }, "geometry": { "type": "Point", "coordinates": [ -107.80723, 37.82443 ] } }
]
}
